ALOS (DAICHI)           
1 28931U 06002A   26053.79805426  .00001416  00000+0  24581-3 0  9992
2 28931  98.1193   9.8314 0001531  54.3173 305.8175 14.69755868 71291
H-2A R/B                
1 28932U 06002B   26053.89252353  .00010261  00000+0  51878-3 0  9996
2 28932  98.2385 199.6505 0052097 292.0716  67.4987 15.16077640 92195
RESURS-DK 1             
1 29228U 06021A   26053.92154511  .00002314  00000+0  13821-3 0  9993
2 29228  69.9314 275.2254 0002953 177.9124 182.2055 15.12644778 85296
CZ-4B R/B               
1 29507U 06046C   26053.83206567  .00005239  00000+0  26720-3 0  9990
2 29507  97.5623  98.7802 0032321 321.2230  38.6683 15.16732428 57796
CZ-2C R/B               
1 31114U 07010B   26053.93134714  .00000137  00000+0  81878-4 0  9992
2 31114  98.3973 167.9507 0058400 338.1635  21.7055 14.20240665977623
COSMO-SKYMED 1          
1 31598U 07023A   26053.95411538  .00003941  00000+0  35286-3 0  9993
2 31598  97.8879 244.8691 0001449  85.8665 274.2721 14.96414494 12707
COSMOS 2428             
1 31792U 07029A   26053.88012836  .00000186  00000+0  12543-3 0  9994
2 31792  70.9402 234.4290 0008232 293.0826  66.9427 14.12941297962006
SL-16 R/B               
1 31793U 07029B   26053.70772495 -.00000103  00000+0 -28301-4 0  9991
2 31793  70.9752 203.8753 0002470 281.5422  94.7102 14.14836562963258
KORONAS-FOTON           
1 33504U 09003A   26053.71999062  .00014622  00000+0  33132-3 0  9995
2 33504  82.4297 291.4374 0009904 203.0649 157.0154 15.42910189943431
CZ-2C R/B               
1 37731U 11030B   26053.87628509  .00001656  00000+0  21462-3 0  9992
2 37731  97.8519  11.4396 0053719  39.8198 334.7981 14.81157092787903
H-2A R/B                
1 38341U 12025E   26053.87104714  .00003657  00000+0  33387-3 0  9994
2 38341  98.4712  19.7366 0044951   3.3094 356.8413 14.95026742746003
SHIJIAN-16 (SJ-16)      
1 39358U 13057A   26053.94710704  .00001341  00000+0  13394-3 0  9993
2 39358  74.9713 212.9943 0016132 150.1965 210.0146 14.92275694669308
