CCSDS_OMM_VERS = 2.0
CREATION_DATE  = 
ORIGINATOR     = 

OBJECT_NAME    = ALOS (DAICHI)
OBJECT_ID      = 2006-002A
CENTER_NAME    = EARTH
REF_FRAME      = TEME
TIME_SYSTEM    = UTC
MEAN_ELEMENT_THEORY = SGP/SGP4

EPOCH          = 2026-02-22T19:09:11.888064
MEAN_MOTION    = 14.69755868
ECCENTRICITY   = .00015318
INCLINATION    = 98.1193
RA_OF_ASC_NODE = 9.8314
ARG_OF_PERICENTER = 54.3173
MEAN_ANOMALY   = 305.8175

EPHEMERIS_TYPE = 0
CLASSIFICATION_TYPE = U
NORAD_CAT_ID   = 28931
ELEMENT_SET_NO = 999
REV_AT_EPOCH   = 7129
BSTAR          = .24581134E-3
MEAN_MOTION_DOT = .1416E-4
MEAN_MOTION_DDOT = 0

CCSDS_OMM_VERS = 2.0
CREATION_DATE  = 
ORIGINATOR     = 

OBJECT_NAME    = H-2A R/B
OBJECT_ID      = 2006-002B
CENTER_NAME    = EARTH
REF_FRAME      = TEME
TIME_SYSTEM    = UTC
MEAN_ELEMENT_THEORY = SGP/SGP4

EPOCH          = 2026-02-22T21:25:14.032992
MEAN_MOTION    = 15.16077640
ECCENTRICITY   = .00520975
INCLINATION    = 98.2385
RA_OF_ASC_NODE = 199.6505
ARG_OF_PERICENTER = 292.0716
MEAN_ANOMALY   = 67.4987

EPHEMERIS_TYPE = 0
CLASSIFICATION_TYPE = U
NORAD_CAT_ID   = 28932
ELEMENT_SET_NO = 999
REV_AT_EPOCH   = 9219
BSTAR          = .51878088E-3
MEAN_MOTION_DOT = .10261E-3
MEAN_MOTION_DDOT = 0

CCSDS_OMM_VERS = 2.0
CREATION_DATE  = 
ORIGINATOR     = 

OBJECT_NAME    = RESURS-DK 1
OBJECT_ID      = 2006-021A
CENTER_NAME    = EARTH
REF_FRAME      = TEME
TIME_SYSTEM    = UTC
MEAN_ELEMENT_THEORY = SGP/SGP4

EPOCH          = 2026-02-22T22:07:01.497504
MEAN_MOTION    = 15.12644778
ECCENTRICITY   = .00029538
INCLINATION    = 69.9314
RA_OF_ASC_NODE = 275.2254
ARG_OF_PERICENTER = 177.9124
MEAN_ANOMALY   = 182.2055

EPHEMERIS_TYPE = 0
CLASSIFICATION_TYPE = U
NORAD_CAT_ID   = 29228
ELEMENT_SET_NO = 999
REV_AT_EPOCH   = 8529
BSTAR          = .13820561E-3
MEAN_MOTION_DOT = .2314E-4
MEAN_MOTION_DDOT = 0

CCSDS_OMM_VERS = 2.0
CREATION_DATE  = 
ORIGINATOR     = 

OBJECT_NAME    = CZ-4B R/B
OBJECT_ID      = 2006-046C
CENTER_NAME    = EARTH
REF_FRAME      = TEME
TIME_SYSTEM    = UTC
MEAN_ELEMENT_THEORY = SGP/SGP4

EPOCH          = 2026-02-22T19:58:10.473888
MEAN_MOTION    = 15.16732428
ECCENTRICITY   = .00323214
INCLINATION    = 97.5623
RA_OF_ASC_NODE = 98.7802
ARG_OF_PERICENTER = 321.2230
MEAN_ANOMALY   = 38.6683

EPHEMERIS_TYPE = 0
CLASSIFICATION_TYPE = U
NORAD_CAT_ID   = 29507
ELEMENT_SET_NO = 999
REV_AT_EPOCH   = 5779
BSTAR          = .26719663E-3
MEAN_MOTION_DOT = .5239E-4
MEAN_MOTION_DDOT = 0

CCSDS_OMM_VERS = 2.0
CREATION_DATE  = 
ORIGINATOR     = 

OBJECT_NAME    = CZ-2C R/B
OBJECT_ID      = 2007-010B
CENTER_NAME    = EARTH
REF_FRAME      = TEME
TIME_SYSTEM    = UTC
MEAN_ELEMENT_THEORY = SGP/SGP4

EPOCH          = 2026-02-22T22:21:08.392896
MEAN_MOTION    = 14.20240665
ECCENTRICITY   = .00584003
INCLINATION    = 98.3973
RA_OF_ASC_NODE = 167.9507
ARG_OF_PERICENTER = 338.1635
MEAN_ANOMALY   = 21.7055

EPHEMERIS_TYPE = 0
CLASSIFICATION_TYPE = U
NORAD_CAT_ID   = 31114
ELEMENT_SET_NO = 999
REV_AT_EPOCH   = 97762
BSTAR          = .8187767E-4
MEAN_MOTION_DOT = .137E-5
MEAN_MOTION_DDOT = 0

CCSDS_OMM_VERS = 2.0
CREATION_DATE  = 
ORIGINATOR     = 

OBJECT_NAME    = COSMO-SKYMED 1
OBJECT_ID      = 2007-023A
CENTER_NAME    = EARTH
REF_FRAME      = TEME
TIME_SYSTEM    = UTC
MEAN_ELEMENT_THEORY = SGP/SGP4

EPOCH          = 2026-02-22T22:53:55.568832
MEAN_MOTION    = 14.96414494
ECCENTRICITY   = .00014498
INCLINATION    = 97.8879
RA_OF_ASC_NODE = 244.8691
ARG_OF_PERICENTER = 85.8665
MEAN_ANOMALY   = 274.2721

EPHEMERIS_TYPE = 0
CLASSIFICATION_TYPE = U
NORAD_CAT_ID   = 31598
ELEMENT_SET_NO = 999
REV_AT_EPOCH   = 1270
BSTAR          = .35285916E-3
MEAN_MOTION_DOT = .3941E-4
MEAN_MOTION_DDOT = 0

CCSDS_OMM_VERS = 2.0
CREATION_DATE  = 
ORIGINATOR     = 

OBJECT_NAME    = COSMOS 2428
OBJECT_ID      = 2007-029A
CENTER_NAME    = EARTH
REF_FRAME      = TEME
TIME_SYSTEM    = UTC
MEAN_ELEMENT_THEORY = SGP/SGP4

EPOCH          = 2026-02-22T21:07:23.090304
MEAN_MOTION    = 14.12941297
ECCENTRICITY   = .00082324
INCLINATION    = 70.9402
RA_OF_ASC_NODE = 234.4290
ARG_OF_PERICENTER = 293.0826
MEAN_ANOMALY   = 66.9427

EPHEMERIS_TYPE = 0
CLASSIFICATION_TYPE = U
NORAD_CAT_ID   = 31792
ELEMENT_SET_NO = 999
REV_AT_EPOCH   = 96200
BSTAR          = .12543026E-3
MEAN_MOTION_DOT = .186E-5
MEAN_MOTION_DDOT = 0

CCSDS_OMM_VERS = 2.0
CREATION_DATE  = 
ORIGINATOR     = 

OBJECT_NAME    = SL-16 R/B
OBJECT_ID      = 2007-029B
CENTER_NAME    = EARTH
REF_FRAME      = TEME
TIME_SYSTEM    = UTC
MEAN_ELEMENT_THEORY = SGP/SGP4

EPOCH          = 2026-02-22T16:59:07.435680
MEAN_MOTION    = 14.14836562
ECCENTRICITY   = .000247
INCLINATION    = 70.9752
RA_OF_ASC_NODE = 203.8753
ARG_OF_PERICENTER = 281.5422
MEAN_ANOMALY   = 94.7102

EPHEMERIS_TYPE = 0
CLASSIFICATION_TYPE = U
NORAD_CAT_ID   = 31793
ELEMENT_SET_NO = 999
REV_AT_EPOCH   = 96325
BSTAR          = -.28301227E-4
MEAN_MOTION_DOT = -.103E-5
MEAN_MOTION_DDOT = 0

CCSDS_OMM_VERS = 2.0
CREATION_DATE  = 
ORIGINATOR     = 

OBJECT_NAME    = KORONAS-FOTON
OBJECT_ID      = 2009-003A
CENTER_NAME    = EARTH
REF_FRAME      = TEME
TIME_SYSTEM    = UTC
MEAN_ELEMENT_THEORY = SGP/SGP4

EPOCH          = 2026-02-22T17:16:47.189568
MEAN_MOTION    = 15.42910189
ECCENTRICITY   = .00099047
INCLINATION    = 82.4297
RA_OF_ASC_NODE = 291.4374
ARG_OF_PERICENTER = 203.0649
MEAN_ANOMALY   = 157.0154

EPHEMERIS_TYPE = 0
CLASSIFICATION_TYPE = U
NORAD_CAT_ID   = 33504
ELEMENT_SET_NO = 999
REV_AT_EPOCH   = 94343
BSTAR          = .33131827E-3
MEAN_MOTION_DOT = .14622E-3
MEAN_MOTION_DDOT = 0

CCSDS_OMM_VERS = 2.0
CREATION_DATE  = 
ORIGINATOR     = 

OBJECT_NAME    = CZ-2C R/B
OBJECT_ID      = 2011-030B
CENTER_NAME    = EARTH
REF_FRAME      = TEME
TIME_SYSTEM    = UTC
MEAN_ELEMENT_THEORY = SGP/SGP4

EPOCH          = 2026-02-22T21:01:51.031776
MEAN_MOTION    = 14.81157092
ECCENTRICITY   = .00537195
INCLINATION    = 97.8519
RA_OF_ASC_NODE = 11.4396
ARG_OF_PERICENTER = 39.8198
MEAN_ANOMALY   = 334.7981

EPHEMERIS_TYPE = 0
CLASSIFICATION_TYPE = U
NORAD_CAT_ID   = 37731
ELEMENT_SET_NO = 999
REV_AT_EPOCH   = 78790
BSTAR          = .21462466E-3
MEAN_MOTION_DOT = .1656E-4
MEAN_MOTION_DDOT = 0

CCSDS_OMM_VERS = 2.0
CREATION_DATE  = 
ORIGINATOR     = 

OBJECT_NAME    = H-2A R/B
OBJECT_ID      = 2012-025E
CENTER_NAME    = EARTH
REF_FRAME      = TEME
TIME_SYSTEM    = UTC
MEAN_ELEMENT_THEORY = SGP/SGP4

EPOCH          = 2026-02-22T20:54:18.472896
MEAN_MOTION    = 14.95026742
ECCENTRICITY   = .00449512
INCLINATION    = 98.4712
RA_OF_ASC_NODE = 19.7366
ARG_OF_PERICENTER = 3.3094
MEAN_ANOMALY   = 356.8413

EPHEMERIS_TYPE = 0
CLASSIFICATION_TYPE = U
NORAD_CAT_ID   = 38341
ELEMENT_SET_NO = 999
REV_AT_EPOCH   = 74600
BSTAR          = .33387166E-3
MEAN_MOTION_DOT = .3657E-4
MEAN_MOTION_DDOT = 0

CCSDS_OMM_VERS = 2.0
CREATION_DATE  = 
ORIGINATOR     = 

OBJECT_NAME    = SHIJIAN-16 (SJ-16)
OBJECT_ID      = 2013-057A
CENTER_NAME    = EARTH
REF_FRAME      = TEME
TIME_SYSTEM    = UTC
MEAN_ELEMENT_THEORY = SGP/SGP4

EPOCH          = 2026-02-22T22:43:50.048256
MEAN_MOTION    = 14.92275694
ECCENTRICITY   = .00161322
INCLINATION    = 74.9713
RA_OF_ASC_NODE = 212.9943
ARG_OF_PERICENTER = 150.1965
MEAN_ANOMALY   = 210.0146

EPHEMERIS_TYPE = 0
CLASSIFICATION_TYPE = U
NORAD_CAT_ID   = 39358
ELEMENT_SET_NO = 999
REV_AT_EPOCH   = 66930
BSTAR          = .13393528E-3
MEAN_MOTION_DOT = .1341E-4
MEAN_MOTION_DDOT = 0

